CZ-2C R/B               
1 52794U 22058K   25324.27460418  .00026183  00000+0  49453-3 0  9999
2 52794  50.1884 157.9813 0048023 105.5646 255.0630 15.46947533193150
CZ-2C R/B               
1 54039U 22132E   25324.25994108  .00027785  00000+0  44058-3 0  9997
2 54039  97.2948 320.0618 0023482 130.9759 229.3531 15.53034053173347
GSLV R/B                
1 54149U 22138AN  25324.18065216  .00002237  00000+0  19637-3 0  9996
2 54149  87.3847 203.0252 0021264 182.6927 177.4193 14.95965243167550
XRISM                   
1 57800U 23137A   25324.16373148  .00006380  00000+0  37694-3 0  9993
2 57800  31.0030 271.2712 0007734  15.2062 344.8808 15.10031594121219
ACS3                    
1 59588U 24077B   25323.63107291  .00031531  00000+0  27806-1 0  9995
2 59588  97.2991 284.3823 0065414  18.2395 342.1090 13.84034307 78942
