CCSDS_OMM_VERS = 2.0
CREATION_DATE  = 
ORIGINATOR     = 

OBJECT_NAME    = CZ-2C R/B
OBJECT_ID      = 2022-058K
CENTER_NAME    = EARTH
REF_FRAME      = TEME
TIME_SYSTEM    = UTC
MEAN_ELEMENT_THEORY = SGP/SGP4

EPOCH          = 2025-11-20T06:35:25.801152
MEAN_MOTION    = 15.46947533
ECCENTRICITY   = .00480238
INCLINATION    = 50.1884
RA_OF_ASC_NODE = 157.9813
ARG_OF_PERICENTER = 105.5646
MEAN_ANOMALY   = 255.0630

EPHEMERIS_TYPE = 0
CLASSIFICATION_TYPE = U
NORAD_CAT_ID   = 52794
ELEMENT_SET_NO = 999
REV_AT_EPOCH   = 19315
BSTAR          = .49452965E-3
MEAN_MOTION_DOT = .26183E-3
MEAN_MOTION_DDOT = 0

CCSDS_OMM_VERS = 2.0
CREATION_DATE  = 
ORIGINATOR     = 

OBJECT_NAME    = CZ-2C R/B
OBJECT_ID      = 2022-132E
CENTER_NAME    = EARTH
REF_FRAME      = TEME
TIME_SYSTEM    = UTC
MEAN_ELEMENT_THEORY = SGP/SGP4

EPOCH          = 2025-11-20T06:14:18.909312
MEAN_MOTION    = 15.53034053
ECCENTRICITY   = .0023482
INCLINATION    = 97.2948
RA_OF_ASC_NODE = 320.0618
ARG_OF_PERICENTER = 130.9759
MEAN_ANOMALY   = 229.3531

EPHEMERIS_TYPE = 0
CLASSIFICATION_TYPE = U
NORAD_CAT_ID   = 54039
ELEMENT_SET_NO = 999
REV_AT_EPOCH   = 17334
BSTAR          = .44057884E-3
MEAN_MOTION_DOT = .27785E-3
MEAN_MOTION_DDOT = 0

CCSDS_OMM_VERS = 2.0
CREATION_DATE  = 
ORIGINATOR     = 

OBJECT_NAME    = GSLV R/B
OBJECT_ID      = 2022-138AN
CENTER_NAME    = EARTH
REF_FRAME      = TEME
TIME_SYSTEM    = UTC
MEAN_ELEMENT_THEORY = SGP/SGP4

EPOCH          = 2025-11-20T04:20:08.346624
MEAN_MOTION    = 14.95965243
ECCENTRICITY   = .00212643
INCLINATION    = 87.3847
RA_OF_ASC_NODE = 203.0252
ARG_OF_PERICENTER = 182.6927
MEAN_ANOMALY   = 177.4193

EPHEMERIS_TYPE = 0
CLASSIFICATION_TYPE = U
NORAD_CAT_ID   = 54149
ELEMENT_SET_NO = 999
REV_AT_EPOCH   = 16755
BSTAR          = .19636823E-3
MEAN_MOTION_DOT = .2237E-4
MEAN_MOTION_DDOT = 0

CCSDS_OMM_VERS = 2.0
CREATION_DATE  = 
ORIGINATOR     = 

OBJECT_NAME    = XRISM
OBJECT_ID      = 2023-137A
CENTER_NAME    = EARTH
REF_FRAME      = TEME
TIME_SYSTEM    = UTC
MEAN_ELEMENT_THEORY = SGP/SGP4

EPOCH          = 2025-11-20T03:55:46.399872
MEAN_MOTION    = 15.10031594
ECCENTRICITY   = .00077342
INCLINATION    = 31.0030
RA_OF_ASC_NODE = 271.2712
ARG_OF_PERICENTER = 15.2062
MEAN_ANOMALY   = 344.8808

EPHEMERIS_TYPE = 0
CLASSIFICATION_TYPE = U
NORAD_CAT_ID   = 57800
ELEMENT_SET_NO = 999
REV_AT_EPOCH   = 12121
BSTAR          = .37694477E-3
MEAN_MOTION_DOT = .638E-4
MEAN_MOTION_DDOT = 0

CCSDS_OMM_VERS = 2.0
CREATION_DATE  = 
ORIGINATOR     = 

OBJECT_NAME    = ACS3
OBJECT_ID      = 2024-077B
CENTER_NAME    = EARTH
REF_FRAME      = TEME
TIME_SYSTEM    = UTC
MEAN_ELEMENT_THEORY = SGP/SGP4

EPOCH          = 2025-11-19T15:08:44.699424
MEAN_MOTION    = 13.84034307
ECCENTRICITY   = .0065414
INCLINATION    = 97.2991
RA_OF_ASC_NODE = 284.3823
ARG_OF_PERICENTER = 18.2395
MEAN_ANOMALY   = 342.1090

EPHEMERIS_TYPE = 0
CLASSIFICATION_TYPE = U
NORAD_CAT_ID   = 59588
ELEMENT_SET_NO = 999
REV_AT_EPOCH   = 7894
BSTAR          = .27806323E-1
MEAN_MOTION_DOT = .31531E-3
MEAN_MOTION_DDOT = 0

